SOYUZ-MS 28             
1 66664U 25275A   26190.70194686  .00005376  00000+0  10580-3 0  9995
2 66664  51.6304 188.6620 0006668 275.8666  84.1562 15.48959671645754
CREW DRAGON 12          
1 67796U 26031A   26190.70194686  .00005376  00000+0  10580-3 0  9993
2 67796  51.6304 188.6620 0006668 275.8666  84.1562 15.48959671628022
SHENZHOU-23 (SZ-23)     
1 69180U 26113A   26190.31778095  .00001103  00000+0  18566-4 0  9999
2 69180  41.4688 187.4551 0002653 281.7622  78.2918 15.58017197295502
