{"fetched_at":"2026-07-10T07:58:48.601Z","source":"https://celestrak.org/NORAD/elements/gp.php?GROUP=stations&FORMAT=JSON","constellation":"crewed-vehicles","records":[{"OBJECT_NAME":"SOYUZ-MS 28","OBJECT_ID":"2025-275A","EPOCH":"2026-07-09T16:50:48.208704","CLASSIFICATION_TYPE":"U","MEAN_MOTION":15.48959671,"ECCENTRICITY":0.0006668,"INCLINATION":51.6304,"RA_OF_ASC_NODE":188.662,"ARG_OF_PERICENTER":275.8666,"MEAN_ANOMALY":84.1562,"EPHEMERIS_TYPE":0,"NORAD_CAT_ID":66664,"ELEMENT_SET_NO":999,"REV_AT_EPOCH":64575,"BSTAR":0.0001058,"MEAN_MOTION_DOT":0.00005376,"MEAN_MOTION_DDOT":0},{"OBJECT_NAME":"CREW DRAGON 12","OBJECT_ID":"2026-031A","EPOCH":"2026-07-09T16:50:48.208704","CLASSIFICATION_TYPE":"U","MEAN_MOTION":15.48959671,"ECCENTRICITY":0.0006668,"INCLINATION":51.6304,"RA_OF_ASC_NODE":188.662,"ARG_OF_PERICENTER":275.8666,"MEAN_ANOMALY":84.1562,"EPHEMERIS_TYPE":0,"NORAD_CAT_ID":67796,"ELEMENT_SET_NO":999,"REV_AT_EPOCH":62802,"BSTAR":0.0001058,"MEAN_MOTION_DOT":0.00005376,"MEAN_MOTION_DDOT":0},{"OBJECT_NAME":"SHENZHOU-23 (SZ-23)","OBJECT_ID":"2026-113A","EPOCH":"2026-07-09T07:37:36.274080","CLASSIFICATION_TYPE":"U","MEAN_MOTION":15.58017197,"ECCENTRICITY":0.00026539,"INCLINATION":41.4688,"RA_OF_ASC_NODE":187.4551,"ARG_OF_PERICENTER":281.7622,"MEAN_ANOMALY":78.2918,"EPHEMERIS_TYPE":0,"NORAD_CAT_ID":69180,"ELEMENT_SET_NO":999,"REV_AT_EPOCH":29550,"BSTAR":0.000018566091,"MEAN_MOTION_DOT":0.00001103,"MEAN_MOTION_DDOT":0}]}
